IRIDIUM 64 [+]          
1 25287U 98021C   11147.37829008 -.00001335  00000-0 -48382-3 0  4004
2 25287  86.3950  68.8456 0002393  80.9664 279.1743 14.34211508687838
IRIDIUM 65 [+]          
1 25288U 98021D   11147.38463188 -.00001299  00000-0 -47095-3 0  4390
2 25288  86.3942  68.7860 0002430  71.5204 288.6162 14.34211892687854
IRIDIUM 66 [+]          
1 25289U 98021E   11147.32120963 -.00001643  00000-0 -59386-3 0  3866
2 25289  86.3945  68.7351 0002583  78.7088 281.4425 14.34208196687846
IRIDIUM 67 [+]          
1 25290U 98021F   11147.32755067 -.00001521  00000-0 -55058-3 0  2289
2 25290  86.3947  68.8350 0002532  78.8954 281.2492 14.34210219687859
IRIDIUM 68 [+]          
1 25291U 98021G   11147.33389125 -.00000701  00000-0 -25732-3 0  4398
2 25291  86.3954  68.9104 0002620  77.3685 282.7719 14.34215838687826
IRIDIUM 69 [-]          
1 25319U 98026A   11147.50694020  .00000181  00000-0  54290-4 0  2521
2 25319  86.3974  95.5828 0002998  31.1442 328.9932 14.37256670685050
IRIDIUM 71 [-]          
1 25320U 98026B   11147.47071068  .00000177  00000-0  52120-4 0  9588
2 25320  86.3966  92.6096 0004589  60.6731 299.4925 14.37829611685374
IRIDIUM 70 [+]          
1 25342U 98032A   11147.35925023  .00000242  00000-0  79335-4 0  4692
2 25342  86.3952  69.0378 0002726  77.4554 282.6957 14.34221739681935
IRIDIUM 72 [+]          
1 25343U 98032B   11147.34657816 -.00001410  00000-0 -51062-3 0  4498
2 25343  86.3952  68.7998 0002496  75.0625 285.0813 14.34210621681933
IRIDIUM 73 [-]          
1 25344U 98032C   11147.52322026  .00000198  00000-0  48669-4 0  3388
2 25344  86.4431  56.8200 0001782  64.8721 295.2666 14.47315404687317
IRIDIUM 74 [S]          
1 25345U 98032D   11147.28733864  .00000224  00000-0  61109-4 0  4709
2 25345  86.4457  69.0322 0002603  80.7198 279.4298 14.42949371683643
IRIDIUM 75 [+]          
1 25346U 98032E   11147.35291941 -.00001155  00000-0 -41947-3 0  4706
2 25346  86.3960  68.9704 0002387  78.3648 281.7729 14.34212898682503
IRIDIUM 3 [+]           
1 25431U 98048A   11147.33735733  .00000129  00000-0  38882-4 0  3946
2 25431  86.3940 100.5731 0002988  70.4165 289.7364 14.34218196668440
IRIDIUM 76 [+]          
1 25432U 98048B   11147.35638429  .00000158  00000-0  49301-4 0  3303
2 25432  86.3938 100.3905 0003134  88.1666 271.9890 14.34218373668438
IRIDIUM 82 [+]          
1 25467U 98051A   11147.32561133  .00000260  00000-0  85699-4 0  5585
2 25467  86.3967 226.8363 0002136  66.6122 293.5314 14.34219121669444
IRIDIUM 81 [+]          
1 25468U 98051B   11147.31926624  .00000176  00000-0  55716-4 0  3902
2 25468  86.3957 226.6132 0002324  91.6103 268.5352 14.34218223665668
IRIDIUM 80 [+]          
1 25469U 98051C   11147.37000888  .00000183  00000-0  58303-4 0  3963
2 25469  86.3965 226.7653 0002436  91.6643 268.4826 14.34218715665672
IRIDIUM 77 [+]          
1 25471U 98051E   11147.30657981 -.00000000  00000-0 -72157-5 0  5631
2 25471  86.3964 226.5917 0003518  77.9328 282.2222 14.34218078670867
IRIDIUM 2 [-]           
1 25527U 98066A   11147.30480103  .00000862  00000-0  68350-4 0  9030
2 25527  85.5634 236.5821 0010004 160.8046 199.3559 14.99080162684415
IRIDIUM 86 [+]          
1 25528U 98066B   11147.40464657 -.00000047  00000-0 -23849-4 0  6205
2 25528  86.3975 194.7950 0002863  73.6001 286.5536 14.34213016662209
IRIDIUM 84 [+]          
1 25530U 98066D   11147.22705148  .00000152  00000-0  47038-4 0  2758
2 25530  86.3959 194.9922 0002524  87.6107 272.5366 14.34213859659815
IRIDIUM 83 [+]          
1 25531U 98066E   11147.46807136  .00000134  00000-0  40613-4 0  4052
2 25531  86.3969 194.9307 0002548  88.1385 272.0107 14.34213789657205
IRIDIUM 20 [+]          
1 25577U 98074A   11147.38812350  .00000167  00000-0  52565-4 0  3184
2 25577  86.3940 100.3308 0002567  78.8652 281.2855 14.34217162651272
IRIDIUM 11 [+]          
1 25578U 98074B   11147.35003111  .00000181  00000-0  57584-4 0  5510
2 25578  86.3939 100.5910 0003793 117.0094 243.1489 14.34218370660238
IRIDIUM 14 [S]          
1 25777U 99032A   11147.38389785  .00000318  00000-0  69025-4 0  5169
2 25777  86.5131  68.8574 0002572  77.4674 282.6804 14.54941028635049
IRIDIUM 21 [+]          
1 25778U 99032B   11147.34024053 -.00001530  00000-0 -55351-3 0  3871
2 25778  86.3948  68.8842 0004135 103.2448 256.9236 14.34208589630949
IRIDIUM 91 [+]          
1 27372U 02005A   11147.44858445 -.00000009  00000-0 -10365-4 0  9949
2 27372  86.3963 132.3409 0001211 295.3990  64.7089 14.34215581494478
IRIDIUM 90 [S]          
1 27373U 02005B   11147.41115268  .00000147  00000-0  37903-4 0  9562
2 27373  86.4480 194.8279 0006135 139.0777 221.0878 14.42949619492263
IRIDIUM 94 [S]          
1 27374U 02005C   11147.33629248  .00000154  00000-0  23764-4 0   820
2 27374  86.5762 131.8895 0002697  82.5864 277.5654 14.66239736497071
IRIDIUM 95 [+]          
1 27375U 02005D   11147.41688040  .00000034  00000-0  52200-5 0  9559
2 27375  86.3960 132.1516 0002642  83.0587 277.0918 14.34215932493758
IRIDIUM 96 [S]          
1 27376U 02005E   11147.41078737  .00000204  00000-0  32792-4 0   784
2 27376  86.5757 131.7943 0002733  80.3456 279.8083 14.66241533497084
IRIDIUM 97 [+]          
1 27450U 02031A   11147.36320656 -.00000005  00000-0 -89755-5 0  8714
2 27450  86.3967 163.7943 0000643 247.6274 112.4852 14.34213061473065
IRIDIUM 98 [S]          
1 27451U 02031B   11147.36715445  .00000243  00000-0  66716-4 0  9218
2 27451  86.4497 227.1419 0001244 275.1727  84.9332 14.42950071473115
